GLOBALSTAR M079 [+]     
1 37188U 10054A   16219.19223699 -.00000094  00000-0  54802-4 0  9994
2 37188  52.0038 273.6633 0000243 114.5887 280.1481 12.62262287268345
GLOBALSTAR M074 [+]     
1 37189U 10054B   16219.57396308 -.00000095  00000-0  47432-4 0  9997
2 37189  52.0014 272.4222 0000214 154.4305 355.0859 12.62266156268381
GLOBALSTAR M076 [+]     
1 37190U 10054C   16219.51259362 -.00000078  00000-0  14447-3 0  9991
2 37190  52.0023 272.4340 0000715 259.0414 239.8828 12.62270995268384
GLOBALSTAR M077 [+]     
1 37191U 10054D   16218.57234956 -.00000105  00000-0 -81817-5 0  9998
2 37191  52.0050 231.3755 0000489 120.3490  31.6969 12.62269141268544
GLOBALSTAR M075 [+]     
1 37192U 10054E   16220.23088487 -.00000087  00000-0  92918-4 0  9992
2 37192  51.9962 314.4282 0000974 103.3179 276.6795 12.62268702267715
GLOBALSTAR M073 [+]     
1 37193U 10054F   16220.23868627 -.00000113  00000-0 -49102-4 0  9993
2 37193  52.0035 225.7420 0000092  69.0318   9.8633 12.62275192269227
GLOBALSTAR M083 [+]     
1 37739U 11033A   16220.16603102 -.00000106  00000-0 -13315-4 0  9993
2 37739  51.9843 179.0712 0000626  41.2073  33.0720 12.62267941238546
GLOBALSTAR M088 [+]     
1 37740U 11033B   16219.48605854 -.00000091  00000-0  69817-4 0  9994
2 37740  51.9732  89.2478 0000956  73.2656 352.0600 12.62261016233930
GLOBALSTAR M091 [+]     
1 37741U 11033C   16219.50427852 -.00000105  00000-0 -74648-5 0  9994
2 37741  52.0002  47.0434 0000849  71.0187 312.4484 12.62267244234696
GLOBALSTAR M085 [+]     
1 37742U 11033D   16219.51154808 -.00000101  00000-0  17008-4 0  9995
2 37742  51.9883   0.9226 0000909  80.9097  32.4018 12.62265425235439
GLOBALSTAR M081 [+]     
1 37743U 11033E   16219.85948808 -.00000104  00000-0 -10559-5 0  9993
2 37743  51.9974   0.6088 0000951 113.5351  51.8366 12.62266484235513
GLOBALSTAR M089 [+]     
1 37744U 11033F   16219.74756366 -.00000083  00000-0  11535-3 0  9996
2 37744  51.9945 315.8328 0000388 157.5018   5.0568 12.62265070236215
GLOBALSTAR M084 [+]     
1 38040U 11080A   16219.37539103 -.00000112  00000-0 -45458-4 0  9991
2 38040  51.9991 182.6312 0000428  73.4412  91.6204 12.62274116214178
GLOBALSTAR M080 [+]     
1 38041U 11080B   16219.85694852 -.00000112  00000-0 -43249-4 0  9994
2 38041  52.0043 181.5345 0000368 346.2338  32.0848 12.62269061214226
GLOBALSTAR M082 [+]     
1 38042U 11080C   16219.19984036 -.00000091  00000-0  70657-4 0  9996
2 38042  52.0072 138.7470 0000759  43.3960 104.0415 12.62263132214876
GLOBALSTAR M092 [+]     
1 38043U 11080D   16220.17917985 -.00000108  00000-0 -21735-4 0  9999
2 38043  52.0069 225.8788 0000478 125.6361 309.9258 12.62274062213492
GLOBALSTAR M090 [+]     
1 38044U 11080E   16219.29987683 -.00000080  00000-0  13502-3 0  9993
2 38044  51.9882 136.3747 0000511  27.4355 125.0496 12.62265585214879
GLOBALSTAR M086 [+]     
1 38045U 11080F   16219.34008479 -.00000085  00000-0  10754-3 0  9998
2 38045  51.9892 136.6509 0000567  33.1024 121.4057 12.62266084214887
GLOBALSTAR M097 [+]     
1 39072U 13005A   16219.95468005 -.00000112  00000-0 -44021-4 0  9997
2 39072  52.0052  45.9307 0000497  76.5943 283.4979 12.62268428162191
GLOBALSTAR M093 [+]     
1 39073U 13005B   16219.51887030 -.00000109  00000-0 -30866-4 0  9991
2 39073  51.9815  45.6594 0000418 161.6883 198.3999 12.62263717162141
GLOBALSTAR M094 [+]     
1 39074U 13005C   16220.08792605 -.00000085  00000-0  10474-3 0  9993
2 39074  51.9973 315.1684 0000580 106.8797 253.2133 12.62266994163712
GLOBALSTAR M096 [+]     
1 39075U 13005D   16219.76377607 -.00000103  00000-0  70864-5 0  9990
2 39075  52.0089   1.9961 0001656  73.5605 286.5444 12.62266151162925
GLOBALSTAR M078 [+]     
1 39076U 13005E   16219.82806348 -.00000092  00000-0  63240-4 0  9993
2 39076  51.9890  90.1728 0000738  53.4496 306.6439 12.62263205161429
GLOBALSTAR M095 [+]     
1 39077U 13005F   16220.08536720 -.00000088  00000-0  87890-4 0  9990
2 39077  51.9799  88.7835 0000958  55.3230 304.7727 12.62262528161461
